{"type": "FeatureCollection", "features": [ {"type": "Feature", "properties": {"norad_id": 34570, "name": "COSMOS 2251 DEB", "group": "cosmos-2251-debris", "lat": 60.12774658908495, "lon": 18.72767874562914, "alt_km": 750.0752731228122, "timestamp": "2025-12-06T16:45:43.116201+00:00", "meta": {"OBJECT_NAME": "COSMOS 2251 DEB", "OBJECT_ID": "1993-036VG", "EPOCH": "2025-12-06T03:12:06.499584", "MEAN_MOTION": 13.99803455, "ECCENTRICITY": 0.01902195, "INCLINATION": 73.9579, "RA_OF_ASC_NODE": 229.771, "ARG_OF_PERICENTER": 113.7537, "MEAN_ANOMALY": 35.4941, "EPHEMERIS_TYPE": 0, "CLASSIFICATION_TYPE": "U", "NORAD_CAT_ID": 34570, "ELEMENT_SET_NO": 999, "REV_AT_EPOCH": 85508, "BSTAR": 0.00076088738, "MEAN_MOTION_DOT": 1.281e-05, "MEAN_MOTION_DDOT": 0}, "tle": {"line1": "1 34570U 93036VG  25340.13340856  .00001281  00000+0  76089-3 0  9998", "line2": "2 34570  73.9579 229.7710 0190219 113.7537  35.4941 13.99803455855087"}}, "geometry": {"type": "Point", "coordinates": [18.72767874562914, 60.12774658908495]}}, {"type": "Feature", "properties": {"norad_id": 34571, "name": "COSMOS 2251 DEB", "group": "cosmos-2251-debris", "lat": -15.932818278731789, "lon": -170.93480555683328, "alt_km": 753.0026945402233, "timestamp": "2025-12-06T16:45:43.116211+00:00", "meta": {"OBJECT_NAME": "COSMOS 2251 DEB", "OBJECT_ID": "1993-036VH", "EPOCH": "2025-12-05T20:57:01.253952", "MEAN_MOTION": 14.48652907, "ECCENTRICITY": 0.00669019, "INCLINATION": 74.039, "RA_OF_ASC_NODE": 195.2976, "ARG_OF_PERICENTER": 231.9254, "MEAN_ANOMALY": 127.586, "EPHEMERIS_TYPE": 0, "CLASSIFICATION_TYPE": "U", "NORAD_CAT_ID": 34571, "ELEMENT_SET_NO": 999, "REV_AT_EPOCH": 87194, "BSTAR": 0.0035092807, "MEAN_MOTION_DOT": 0.0001359, "MEAN_MOTION_DDOT": 0}, "tle": {"line1": "1 34571U 93036VH  25339.87293118  .00013590  00000+0  35093-2 0  9991", "line2": "2 34571  74.0390 195.2976 0066901 231.9254 127.5860 14.48652907871946"}}, "geometry": {"type": "Point", "coordinates": [-170.93480555683328, -15.932818278731789]}}, {"type": "Feature", "properties": {"norad_id": 34572, "name": "COSMOS 2251 DEB", "group": "cosmos-2251-debris", "lat": 0.7064590998395688, "lon": -53.33206342891833, "alt_km": 686.8047899404937, "timestamp": "2025-12-06T16:45:43.116221+00:00", "meta": {"OBJECT_NAME": "COSMOS 2251 DEB", "OBJECT_ID": "1993-036VJ", "EPOCH": "2025-12-03T10:14:07.080576", "MEAN_MOTION": 14.49672328, "ECCENTRICITY": 0.00639869, "INCLINATION": 74.0096, "RA_OF_ASC_NODE": 133.0197, "ARG_OF_PERICENTER": 208.2005, "MEAN_ANOMALY": 181.8869, "EPHEMERIS_TYPE": 0, "CLASSIFICATION_TYPE": "U", "NORAD_CAT_ID": 34572, "ELEMENT_SET_NO": 999, "REV_AT_EPOCH": 87243, "BSTAR": 0.0038394199, "MEAN_MOTION_DOT": 0.00015164, "MEAN_MOTION_DDOT": 0}, "tle": {"line1": "1 34572U 93036VJ  25337.42647084  .00015164  00000+0  38394-2 0  9992", "line2": "2 34572  74.0096 133.0197 0063986 208.2005 181.8869 14.49672328872433"}}, "geometry": {"type": "Point", "coordinates": [-53.33206342891833, 0.7064590998395688]}}, {"type": "Feature", "properties": {"norad_id": 34574, "name": "COSMOS 2251 DEB", "group": "cosmos-2251-debris", "lat": -21.408528895316696, "lon": 48.40668348390573, "alt_km": 672.4273563009574, "timestamp": "2025-12-06T16:45:43.116231+00:00", "meta": {"OBJECT_NAME": "COSMOS 2251 DEB", "OBJECT_ID": "1993-036VL", "EPOCH": "2025-12-05T05:05:33.914112", "MEAN_MOTION": 14.70474844, "ECCENTRICITY": 0.00669895, "INCLINATION": 74.0703, "RA_OF_ASC_NODE": 57.7127, "ARG_OF_PERICENTER": 81.2459, "MEAN_ANOMALY": 312.8896, "EPHEMERIS_TYPE": 0, "CLASSIFICATION_TYPE": "U", "NORAD_CAT_ID": 34574, "ELEMENT_SET_NO": 999, "REV_AT_EPOCH": 88668, "BSTAR": 0.0018703262, "MEAN_MOTION_DOT": 0.00011728, "MEAN_MOTION_DDOT": 0}, "tle": {"line1": "1 34574U 93036VL  25339.21219808  .00011728  00000+0  18703-2 0  9996", "line2": "2 34574  74.0703  57.7127 0066989  81.2459 312.8896 14.70474844886688"}}, "geometry": {"type": "Point", "coordinates": [48.40668348390573, -21.408528895316696]}}, {"type": "Feature", "properties": {"norad_id": 34576, "name": "COSMOS 2251 DEB", "group": "cosmos-2251-debris", "lat": -72.35348569219478, "lon": 85.47687959305965, "alt_km": 709.5531769138724, "timestamp": "2025-12-06T16:45:43.116241+00:00", "meta": {"OBJECT_NAME": "COSMOS 2251 DEB", "OBJECT_ID": "1993-036VN", "EPOCH": "2025-12-05T22:03:28.107648", "MEAN_MOTION": 14.55346539, "ECCENTRICITY": 0.00079495, "INCLINATION": 74.0327, "RA_OF_ASC_NODE": 151.1169, "ARG_OF_PERICENTER": 285.1521, "MEAN_ANOMALY": 230.9661, "EPHEMERIS_TYPE": 0, "CLASSIFICATION_TYPE": "U", "NORAD_CAT_ID": 34576, "ELEMENT_SET_NO": 999, "REV_AT_EPOCH": 88367, "BSTAR": 0.0014239475, "MEAN_MOTION_DOT": 6.158e-05, "MEAN_MOTION_DDOT": 0}, "tle": {"line1": "1 34576U 93036VN  25339.91907532  .00006158  00000+0  14239-2 0  9994", "line2": "2 34576  74.0327 151.1169 0007949 285.1521 230.9661 14.55346539883671"}}, "geometry": {"type": "Point", "coordinates": [85.47687959305965, -72.35348569219478]}}, {"type": "Feature", "properties": {"norad_id": 34579, "name": "COSMOS 2251 DEB", "group": "cosmos-2251-debris", "lat": -4.604108459236058, "lon": -126.17971206951451, "alt_km": 731.8423380754748, "timestamp": "2025-12-06T16:45:43.116251+00:00", "meta": {"OBJECT_NAME": "COSMOS 2251 DEB", "OBJECT_ID": "1993-036VR", "EPOCH": "2025-12-06T04:11:53.245248", "MEAN_MOTION": 14.45278077, "ECCENTRICITY": 0.00275689, "INCLINATION": 74.0535, "RA_OF_ASC_NODE": 236.1138, "ARG_OF_PERICENTER": 305.7301, "MEAN_ANOMALY": 206.7173, "EPHEMERIS_TYPE": 0, "CLASSIFICATION_TYPE": "U", "NORAD_CAT_ID": 34579, "ELEMENT_SET_NO": 999, "REV_AT_EPOCH": 88079, "BSTAR": 0.00083625332, "MEAN_MOTION_DOT": 2.923e-05, "MEAN_MOTION_DDOT": 0}, "tle": {"line1": "1 34579U 93036VR  25340.17492182  .00002923  00000+0  83625-3 0  9999", "line2": "2 34579  74.0535 236.1138 0027568 305.7301 206.7173 14.45278077880798"}}, "geometry": {"type": "Point", "coordinates": [-126.17971206951451, -4.604108459236058]}}, {"type": "Feature", "properties": {"norad_id": 34582, "name": "COSMOS 2251 DEB", "group": "cosmos-2251-debris", "lat": -23.005375175856894, "lon": -83.37705397565715, "alt_km": 735.2283455108645, "timestamp": "2025-12-06T16:45:43.116261+00:00", "meta": {"OBJECT_NAME": "COSMOS 2251 DEB", "OBJECT_ID": "1993-036VU", "EPOCH": "2025-12-06T05:13:38.124768", "MEAN_MOTION": 14.43270837, "ECCENTRICITY": 0.00474965, "INCLINATION": 74.0203, "RA_OF_ASC_NODE": 284.5044, "ARG_OF_PERICENTER": 36.1527, "MEAN_ANOMALY": 324.2824, "EPHEMERIS_TYPE": 0, "CLASSIFICATION_TYPE": "U", "NORAD_CAT_ID": 34582, "ELEMENT_SET_NO": 999, "REV_AT_EPOCH": 87853, "BSTAR": 0.0013568983, "MEAN_MOTION_DOT": 4.608e-05, "MEAN_MOTION_DDOT": 0}, "tle": {"line1": "1 34582U 93036VU  25340.21780237  .00004608  00000+0  13569-2 0  9990", "line2": "2 34582  74.0203 284.5044 0047496  36.1527 324.2824 14.43270837878536"}}, "geometry": {"type": "Point", "coordinates": [-83.37705397565715, -23.005375175856894]}}, {"type": "Feature", "properties": {"norad_id": 34588, "name": "COSMOS 2251 DEB", "group": "cosmos-2251-debris", "lat": 56.12683306417788, "lon": -55.32452183196236, "alt_km": 745.5014363289347, "timestamp": "2025-12-06T16:45:43.116288+00:00", "meta": {"OBJECT_NAME": "COSMOS 2251 DEB", "OBJECT_ID": "1993-036WA", "EPOCH": "2025-12-06T00:13:32.965248", "MEAN_MOTION": 14.41986884, "ECCENTRICITY": 0.00190107, "INCLINATION": 74.0441, "RA_OF_ASC_NODE": 280.7255, "ARG_OF_PERICENTER": 334.1074, "MEAN_ANOMALY": 110.1545, "EPHEMERIS_TYPE": 0, "CLASSIFICATION_TYPE": "U", "NORAD_CAT_ID": 34588, "ELEMENT_SET_NO": 999, "REV_AT_EPOCH": 87853, "BSTAR": 0.0009311411, "MEAN_MOTION_DOT": 3.035e-05, "MEAN_MOTION_DDOT": 0}, "tle": {"line1": "1 34588U 93036WA  25340.00940932  .00003035  00000+0  93114-3 0  9991", "line2": "2 34588  74.0441 280.7255 0019010 334.1074 110.1545 14.41986884878533"}}, "geometry": {"type": "Point", "coordinates": [-55.32452183196236, 56.12683306417788]}}, {"type": "Feature", "properties": {"norad_id": 34589, "name": "COSMOS 2251 DEB", "group": "cosmos-2251-debris", "lat": 38.24099144621893, "lon": 79.46066948607923, "alt_km": 777.4992647645304, "timestamp": "2025-12-06T16:45:43.116301+00:00", "meta": {"OBJECT_NAME": "COSMOS 2251 DEB", "OBJECT_ID": "1993-036WB", "EPOCH": "2025-12-05T12:58:27.050304", "MEAN_MOTION": 13.86044835, "ECCENTRICITY": 0.02516941, "INCLINATION": 73.9247, "RA_OF_ASC_NODE": 68.2981, "ARG_OF_PERICENTER": 13.0786, "MEAN_ANOMALY": 10.6469, "EPHEMERIS_TYPE": 0, "CLASSIFICATION_TYPE": "U", "NORAD_CAT_ID": 34589, "ELEMENT_SET_NO": 999, "REV_AT_EPOCH": 84612, "BSTAR": 0.00038916081, "MEAN_MOTION_DOT": 5.51e-06, "MEAN_MOTION_DDOT": 0}, "tle": {"line1": "1 34589U 93036WB  25339.54059086  .00000551  00000+0  38916-3 0  9999", "line2": "2 34589  73.9247  68.2981 0251694  13.0786  10.6469 13.86044835846128"}}, "geometry": {"type": "Point", "coordinates": [79.46066948607923, 38.24099144621893]}}, {"type": "Feature", "properties": {"norad_id": 34590, "name": "COSMOS 2251 DEB", "group": "cosmos-2251-debris", "lat": -30.172143728375353, "lon": -35.59455504354542, "alt_km": 750.5391236531295, "timestamp": "2025-12-06T16:45:43.116312+00:00", "meta": {"OBJECT_NAME": "COSMOS 2251 DEB", "OBJECT_ID": "1993-036WC", "EPOCH": "2025-12-06T00:40:53.735808", "MEAN_MOTION": 14.54813683, "ECCENTRICITY": 0.00679875, "INCLINATION": 74.0436, "RA_OF_ASC_NODE": 335.2471, "ARG_OF_PERICENTER": 106.7898, "MEAN_ANOMALY": 314.673, "EPHEMERIS_TYPE": 0, "CLASSIFICATION_TYPE": "U", "NORAD_CAT_ID": 34590, "ELEMENT_SET_NO": 999, "REV_AT_EPOCH": 89023, "BSTAR": 0.00021547221, "MEAN_MOTION_DOT": 9.24e-06, "MEAN_MOTION_DDOT": 0}, "tle": {"line1": "1 34590U 93036WC  25340.02839972  .00000924  00000+0  21547-3 0  9992", "line2": "2 34590  74.0436 335.2471 0067987 106.7898 314.6730 14.54813683890237"}}, "geometry": {"type": "Point", "coordinates": [-35.59455504354542, -30.172143728375353]}}]}